full_name,a,e,i,om,w,q,ad,per_y,data_arc,condition_code,diameter,H
"       (1939 RR)",2.9046747,0.2536844,13.13929,322.99733,64.83753,2.1678040,3.6415454,4.95056142039699,27,,,12.0
" 25310 (1998 XY92)",2.905489887550588,.2787087816116341,14.47833726362375,220.2931601871973,127.8715403132507,2.09570434100644,3.715275434094736,4.95264563007525,21604,0,15.306,13.0
" 19681 (1999 RE194)",2.905744609736778,.09932681558396057,5.357129817634802,301.1311944508141,187.5821579536079,2.617126250751366,3.194362968722191,4.95329693661245,15216,0,13.059,12.8
" 10994 Fouchard (1978 EU9)",2.905973145979726,.00836940615859301,2.445172838815357,156.9684993204502,104.1242947636914,2.881651876435057,2.930294415524395,4.95388131184938,14622,0,7.678,12.9
"  6262 Javid (1978 RZ)",2.906031525142736,.07805156654720878,3.011295863864685,121.9894422672315,251.3807820277344,2.679211212169771,3.1328518381157,4.95403059311382,17021,0,7.791,12.7
" 10025 Rauer (1980 FO1)",2.906461120361282,.06968366421985275,1.242283019551869,313.6403631806788,93.34326755662219,2.70392825958197,3.108993981140595,4.95512915647506,16109,0,8.180,12.8
"  4876 Strabo (1133 T-2)",2.906472081028873,.02685060465922362,1.303677965616872,214.9031981781302,227.6982684194515,2.828431548228096,2.98451261382965,4.9551571862194,16989,0,7.579,12.8
"  8499 (1990 SC13)",2.907460202437551,.01043568456044855,.9051614298840197,266.1289949934546,344.4629141244744,2.877118864892855,2.937801539982247,4.95768432886394,11817,0,8.450,13.0
" 14818 Mindeli (1982 UF7)",2.907834587247728,.1687580137750321,8.238038409376522,217.8115684727506,148.3613291884106,2.417114197917461,3.398554976577995,4.9586419385953,12818,0,14.561,12.9
"  5072 Hioki (1931 TS1)",2.908403091662622,.08691783921945058,2.018161338334041,11.11542882867101,.5354195205228579,2.655610979356137,3.161195203969106,4.96009618961759,31553,0,7.524,12.7
"  6952 Niccolo (1986 JT)",2.908408392955238,.2631086776285566,7.476746752290769,207.5901058783715,69.01950145253078,2.14318090668099,3.673635879229487,4.96010975114902,12942,0,15.962,13.0
"  9098 Toshihiko (1996 BQ3)",2.908414122560747,.155335722785849,3.32847834147148,44.51195997078302,33.85880863886653,2.456633512672203,3.360194732449292,4.96012440838537,10107,0,7.095,13.0
"  3207 Spinrad (1981 EY25)",2.90866944423316,.06045263977587691,2.220061427771901,167.8007296135723,155.8352432178387,2.732832698093833,3.084506190372487,4.96077757622852,19703,0,9.384,12.4
"  7556 Perinaldo (1982 FX2)",2.908925627256694,.1172675942236754,2.634283938152851,15.97332025443537,19.50908537039169,2.567802917172705,3.250048337340682,4.96143297640666,12829,0,9.604,12.8
" 10065 (1988 XK)",2.909339468359085,.1779615785739933,6.912466336036813,236.8257619872393,261.6412209520411,2.39158882396228,3.427090112755891,4.96249177861433,23424,0,12.222,12.9
"  2700 Baikonur (1976 YP7)",2.909783520992112,.04081412476975862,2.406208994964422,171.3634082224101,275.2645390550254,2.791023253313353,3.028543788670872,4.96362796002939,29252,0,11.678,12.0
" 22691 (1998 QD99)",2.909894214332881,.06881226845141826,3.298039112798852,93.06332731127827,288.9021980695884,2.709657792490978,3.110130636174784,4.9639112005777,11406,0,6.851,13.0
"  2319 Aristides (7631 P-L)",2.910150134848121,.08907027057967597,2.969011296223015,112.6029873518819,267.4723779634008,2.650942274909719,3.169357994786524,4.96456606698336,40620,0,10.994,12.0
" 57108 (2001 OS74)",2.910183330241452,.1592404474879279,12.54607244814668,274.7507082592567,121.2030275514742,2.446764434461895,3.373602226021009,4.96465101166952,6894,0,22.310,12.6
" 10708 Richardspalding (1981 UE26)",2.910454861378367,.07718955524942622,3.134029578730307,100.7987885086686,275.5065174974014,2.685798145055041,3.135111577701693,4.96534585901667,13304,0,7.908,12.9
"  4084 Hollis (1985 GM)",2.910461053380487,.01244766012087914,3.212977085172297,87.77863999008939,215.8160314683181,2.874232623392951,2.946689483368023,4.96536170470913,22987,0,10.295,12.2
"  3195 Fedchenko (1978 PT2)",2.911204034948225,.06058574472869071,.8645091908500178,274.6280417571351,59.46700656232639,2.734826570433718,3.087581499462733,4.96726315997107,23282,0,8.560,12.5
"  9644 (1994 WQ3)",2.911484453215404,.147679246086958,8.405168684532416,168.243959380121,171.0906497319715,2.481518624170655,3.341450282260155,4.9679808758302,8253,0,7.950,12.8
"  4305 Clapton (1976 EC)",2.911731357818228,.07161354283779266,1.808205424437377,180.0174313495188,327.8539252305673,2.703211959492968,3.120250756143488,4.96861284383642,24666,0,7.882,12.7
" 26405 (1999 XS15)",2.912172013723501,.06583573393585186,14.28527874497801,106.9076310762581,241.0263063920365,2.720447031852566,3.103896995594435,4.96974079718595,12318,0,5.982,12.8
"  6653 Feininger (1991 XR1)",2.91220156576058,.08331295739881654,1.977749816053297,31.74375076792124,20.87940980249274,2.669577440775602,3.154825690745558,4.96981644502004,24223,0,6.170,12.8
"  2628 Kopal (1979 MS8)",2.912979973846946,.1479031525027884,1.339914298462805,206.5324822609231,147.3636782661258,2.482141052537493,3.343818895156399,4.97180916618861,22740,0,,12.6
"  5730 Yonosuke (1988 TP1)",2.913145821112123,.100763628814331,1.85471836435216,90.07435479628883,269.5679794170896,2.619606676911562,3.206684965312684,4.97223376884474,17021,0,8.225,12.4
" 10569 Kinoshitamasao (1994 GQ)",2.913675143884429,.09148765201233081,13.53874573821086,40.99675683434412,110.6208076237717,2.647109846243753,3.180240441525106,4.97358902340983,24253,0,,13.0
"  4389 Durbin (1976 GL3)",2.914209839806825,.07531104733121811,2.770185586007828,132.1791983892671,222.3601885287552,2.694737644628031,3.133682034985618,4.97495816014014,22955,0,10.107,12.3
" 21366 (1997 JT15)",2.914719196786275,.02969820323347273,3.100708833679072,115.8574752732854,206.093527020279,2.828157273711612,3.001281119860938,4.97626253106279,9634,0,7.439,12.9
"  5465 Chumakov (1986 RF13)",2.915129063958734,.06885789581250434,3.198784259122966,124.4340845077476,186.5910717138859,2.71439941059266,3.115858717324807,4.97731220937615,16931,0,7.738,12.5
" 22050 (1999 YV13)",2.915250062614452,.07957335049070133,10.02005444751677,120.9723333383129,245.4501975058188,2.683273847613993,3.14722627761491,4.97762210354681,10150,0,15.690,12.9
"  4627 Pinomogavero (1985 RT2)",2.915494882027522,.06266215900467527,3.335246640141452,105.6253380612412,226.6885650475937,2.732803678152597,3.098186085902448,4.97824913934815,24194,0,10.021,12.6
"  6718 Beiglbock (1990 TT12)",2.915556114989566,.06411737000281865,1.547000425923381,.5622911540245892,319.4404262490589,2.728618324800799,3.102493905178332,4.97840597440712,23221,0,,12.8
" 28754 (2000 HV1)",2.915801780838855,.2156157158065607,16.54287339614068,218.7554521851342,300.0035627630022,2.287109092713241,3.544494468964469,4.97903521118717,11967,0,15.250,12.8
"  5286 Haruomukai (1989 VT1)",2.915974761204301,.01959801004154932,2.950634638676326,120.2042411649448,273.9749269301457,2.858827458553315,2.973122063855288,4.97947829074238,24668,0,9.139,12.5
" 15444 (1998 WT23)",2.916562356671017,.1176770052961361,11.65443318546659,62.54726392742101,31.78282529481988,2.573350032778531,3.259774680563504,4.98098348189015,10166,0,8.858,12.5
"  4286 Rubtsov (1988 PU4)",2.916594932268389,.07741350682658851,2.904779539814787,134.642396622101,255.3950986915228,2.690811090568836,3.142378773967941,4.9810669323426,24220,0,10.149,12.0
"  4862 Loke (1987 SJ5)",2.916816400050195,.2378884319437798,8.649755701652976,199.7525047782884,100.7835214618476,2.222939520374353,3.610693279726036,4.98163428921492,15305,0,6.610,12.9
" 17282 (2000 LS34)",2.917256206811638,.141100152903495,11.16330142366261,245.7651618742854,36.11086792231246,2.505630909971846,3.328881503651429,4.98276105144333,11346,0,7.697,12.6
"  3377 Lodewijk (4122 P-L)",2.917409393080059,.05772578115862895,1.301898286152359,215.9323635494675,200.866864982324,2.748999656904991,3.085819129255127,4.98315352670324,20944,0,7.733,12.6
"  8202 Gooley (1994 CX2)",2.917410150674866,.07532954554609786,3.079269075139099,118.7450808675186,73.5161739574843,2.697642969852955,3.137177331496776,4.98315546774629,21591,0,6.539,12.8
"  7674 Kasuga (1995 VO1)",2.917528245353809,.08221240784692839,2.738152339245731,139.5179345345528,214.2045873420975,2.677671223341848,3.15738526736577,4.98345804266891,13643,0,,12.7
"  6797 Ostersund (1993 FG25)",2.91771021203943,.06951522257388251,1.12834406811715,321.7238260375285,3.539014763486076,2.714884937243419,3.120535486835441,4.98392427850601,11875,0,,12.5
"  5578 Takakura (1987 BC)",2.917745285993103,.07679001199080064,1.98525220750674,179.6912203482109,184.700281017705,2.693691590495591,3.141798981490616,4.98401414681466,14599,0,8.138,12.6
"  2082 Galahad (7588 P-L)",2.917967205093689,.1670777587254701,3.068492334431761,90.0581414522904,145.3818246512739,2.430439784432211,3.405494625755167,4.98458277199908,20976,0,17.120,12.9
"  7443 Tsumura (1996 BR2)",2.919341393491396,.03835245875504128,1.360609868429539,350.5314053955681,176.5850528092832,2.807377473105632,3.031305313877159,4.98810434800959,10385,0,6.918,13.0
"  5033 Mistral (1990 PF)",2.919404684683736,.05499357983782546,2.511355316357447,143.1405026119662,142.2190807188963,2.758856170077659,3.079953199289812,4.98826656171138,22812,0,9.285,12.4
"  8849 Brighton (1990 VZ4)",2.919597683113723,.1045965359082707,9.989249068268981,187.9166022830417,97.74471997288678,2.614217879214215,3.224977487013232,4.98876122259079,10405,0,,13.0
"  7396 Brusin (1986 EQ2)",2.921653876367555,.08751016599945272,1.660882536858181,182.4929312749864,227.0871128562094,2.665979460653686,3.177328292081425,4.99403232369184,13739,0,7.629,12.9
" 21018 (1988 VV1)",2.921666561049199,.2475470697563908,12.46468971653797,302.3531487367613,357.0227882042079,2.198416565056238,3.644916557042159,4.99406484693805,23276,0,15.082,12.9
"  8694 (1993 CO)",2.921929915654169,.0730400692858445,2.555033091420371,43.13254678129213,33.43488803805985,2.708511952166407,3.135347879141931,4.99474009833214,15124,0,8.277,12.6
